CELESTIS-02             
1 25160U 98007D   22295.89175410 -.00000008  00000+0  54275-4 0  9998
2 25160 107.9852 163.3933 0064284 252.7620 125.3047 14.21655739280975
CELESTIS-03             
1 26034U 99070C   22295.82644617  .00029765  00000+0  12481-2 0  9994
2 26034  98.3085 314.8286 0010735  62.7351 297.4976 15.23408981240430
